IRIDIUM 155             
1 43573U 18061E   20130.44876637  .00000056  00000-0  12752-4 0  9991
2 43573  86.3953 268.4836 0002796  91.6553 268.4963 14.34217455 93767
IRIDIUM 154             
1 43574U 18061F   20130.35996941  .00000060  00000-0  14499-4 0  9998
2 43574  86.3957 268.5487 0001981 100.3823 259.7597 14.34217802 93805
IRIDIUM 163             
1 43575U 18061G   20130.34094917  .00000058  00000-0  13617-4 0  9998
2 43575  86.3953 268.5396 0001784  79.2802 280.8595 14.34217021 93775
IRIDIUM 156             
1 43576U 18061H   20130.38534706  .00000059  00000-0  14121-4 0  9990
2 43576  86.3954 268.5257 0002299  84.5154 275.6304 14.34219027 93772
IRIDIUM 164             
1 43577U 18061J   20130.36633726  .00000061  00000-0  14801-4 0  9999
2 43577  86.3955 268.5402 0001945  95.7209 264.4208 14.34218564 93817
IRIDIUM 159             
1 43578U 18061K   20130.33462372  .00000056  00000-0  12932-4 0  9991
2 43578  86.3953 268.5370 0002033  97.4417 262.7010 14.34218188 93778
IRIDIUM 180             
1 43922U 19002A   20130.26434444  .00000082  00000-0  22265-4 0  9990
2 43922  86.4029 205.4481 0001270 114.4157 245.7171 14.34218238 69411
IRIDIUM 176             
1 43923U 19002B   20130.27449310  .00000140  00000-0  18287-4 0  9994
2 43923  86.6164 205.4674 0002328  94.2764 265.8720 14.72252279 71165
IRIDIUM 168             
1 43924U 19002C   20130.53706706  .00000088  00000-0  24285-4 0  9995
2 43924  86.4030 205.3484 0002097 101.8455 258.2976 14.34218829 69391
IRIDIUM 173             
1 43925U 19002D   20130.24530693  .00000077  00000-0  20576-4 0  9991
2 43925  86.4027 205.4497 0002123  97.8473 262.2964 14.34218860 69349
IRIDIUM 169             
1 43926U 19002E   20130.36377227  .00000074  00000-0  17598-4 0  9994
2 43926  86.4264 236.9475 0007315 112.8536 247.3435 14.38604900 69642
IRIDIUM 172             
1 43927U 19002F   20130.30872328  .00000083  00000-0  22500-4 0  9990
2 43927  86.4028 205.4242 0002018  99.4540 260.6884 14.34220097 69355
IRIDIUM 175             
1 43928U 19002G   20130.26830835  .00000149  00000-0  19746-4 0  9994
2 43928  86.6148 205.3697 0003143  81.4186 278.7387 14.72252584 71158
IRIDIUM 171             
1 43929U 19002H   20130.28970540  .00000079  00000-0  21107-4 0  9991
2 43929  86.4037 205.4906 0002113 102.0084 258.1349 14.34218960 69347
IRIDIUM 170             
1 43930U 19002J   20130.28061665  .00000144  00000-0  18889-4 0  9998
2 43930  86.6164 205.4718 0002386  87.6095 272.5395 14.72251818 71171
IRIDIUM 167             
1 43931U 19002K   20130.28337649  .00000083  00000-0  22567-4 0  9997
2 43931  86.4028 205.4375 0001464 113.8221 246.3129 14.34218307 69341
